SAUDISAT 1C (SO-50)     
1 27607U 02058C   26166.33462240  .00000861  00000+0  11895-3 0  9993
2 27607  64.5510 134.7172 0075306 262.8143  96.4397 14.83043230264184
SAUDISAT 2              
1 28371U 04025F   26166.92993136  .00000212  00000+0  58497-4 0  9996
2 28371  98.5507 166.8793 0023636 302.2895  57.6012 14.56683326165564
SAUDISAT 3              
1 31118U 07012B   26166.83064163  .00000216  00000+0  43013-4 0  9999
2 31118  98.1456 117.2304 0013565 228.4341 131.5703 14.71424913 27545
PISAT                   
1 41784U 16059B   26166.98604561  .00000730  00000+0  13186-3 0  9996
2 41784  97.8179 167.4904 0028287 206.7001 153.2750 14.68981716519561
FLYING LAPTOP           
1 42831U 17042G   26166.98568359  .00002966  00000+0  23513-3 0  9995
2 42831  97.4677 322.5642 0019509 125.5678 234.7368 15.01139202486276
SALSAT                  
1 46495U 20068K   26166.77190721  .00006667  00000+0  23385-3 0  9997
2 46495  97.8844 169.7502 0008124 314.2855  45.7717 15.29782498315143
